<?xml version="1.0" encoding="UTF-8"?>
<ndm xmlns:xsi="http://www.w3.org/2001/XMLSchema-instance" xsi:noNamespaceSchemaLocation="https://sanaregistry.org/r/ndmxml_unqualified/ndmxml-2.0.0-master-2.0.xsd">
<omm id="CCSDS_OMM_VERS" version="2.0">
<header><CREATION_DATE/><ORIGINATOR/></header><body><segment><metadata><OBJECT_NAME>ORBCOMM FM20</OBJECT_NAME><OBJECT_ID>1998-046D</OBJECT_ID><CENTER_NAME>EARTH</CENTER_NAME><REF_FRAME>TEME</REF_FRAME><TIME_SYSTEM>UTC</TIME_SYSTEM><MEAN_ELEMENT_THEORY>SGP4</MEAN_ELEMENT_THEORY></metadata><data><meanElements><EPOCH>2025-10-28T05:19:39.252576</EPOCH><MEAN_MOTION>14.37516230</MEAN_MOTION><ECCENTRICITY>.00027376</ECCENTRICITY><INCLINATION>44.9943</INCLINATION><RA_OF_ASC_NODE>271.1252</RA_OF_ASC_NODE><ARG_OF_PERICENTER>286.6475</ARG_OF_PERICENTER><MEAN_ANOMALY>73.4073</MEAN_ANOMALY></meanElements><tleParameters><EPHEMERIS_TYPE>0</EPHEMERIS_TYPE><CLASSIFICATION_TYPE>U</CLASSIFICATION_TYPE><NORAD_CAT_ID>25416</NORAD_CAT_ID><ELEMENT_SET_NO>999</ELEMENT_SET_NO><REV_AT_EPOCH>42340</REV_AT_EPOCH><BSTAR>.51860312E-3</BSTAR><MEAN_MOTION_DOT>.1426E-4</MEAN_MOTION_DOT><MEAN_MOTION_DDOT>0</MEAN_MOTION_DDOT></tleParameters></data></segment></body></omm>
<omm id="CCSDS_OMM_VERS" version="2.0">
<header><CREATION_DATE/><ORIGINATOR/></header><body><segment><metadata><OBJECT_NAME>ORBCOMM FM16</OBJECT_NAME><OBJECT_ID>1998-046E</OBJECT_ID><CENTER_NAME>EARTH</CENTER_NAME><REF_FRAME>TEME</REF_FRAME><TIME_SYSTEM>UTC</TIME_SYSTEM><MEAN_ELEMENT_THEORY>SGP4</MEAN_ELEMENT_THEORY></metadata><data><meanElements><EPOCH>2025-10-28T09:40:46.210368</EPOCH><MEAN_MOTION>14.39334959</MEAN_MOTION><ECCENTRICITY>.00059052</ECCENTRICITY><INCLINATION>44.9927</INCLINATION><RA_OF_ASC_NODE>260.0416</RA_OF_ASC_NODE><ARG_OF_PERICENTER>268.9513</ARG_OF_PERICENTER><MEAN_ANOMALY>91.0659</MEAN_ANOMALY></meanElements><tleParameters><EPHEMERIS_TYPE>0</EPHEMERIS_TYPE><CLASSIFICATION_TYPE>U</CLASSIFICATION_TYPE><NORAD_CAT_ID>25417</NORAD_CAT_ID><ELEMENT_SET_NO>999</ELEMENT_SET_NO><REV_AT_EPOCH>42344</REV_AT_EPOCH><BSTAR>.7354148E-3</BSTAR><MEAN_MOTION_DOT>.2165E-4</MEAN_MOTION_DOT><MEAN_MOTION_DDOT>0</MEAN_MOTION_DDOT></tleParameters></data></segment></body></omm>
<omm id="CCSDS_OMM_VERS" version="2.0">
<header><CREATION_DATE/><ORIGINATOR/></header><body><segment><metadata><OBJECT_NAME>ORBCOMM FM15</OBJECT_NAME><OBJECT_ID>1998-046F</OBJECT_ID><CENTER_NAME>EARTH</CENTER_NAME><REF_FRAME>TEME</REF_FRAME><TIME_SYSTEM>UTC</TIME_SYSTEM><MEAN_ELEMENT_THEORY>SGP4</MEAN_ELEMENT_THEORY></metadata><data><meanElements><EPOCH>2025-10-28T04:54:34.411680</EPOCH><MEAN_MOTION>14.38963852</MEAN_MOTION><ECCENTRICITY>.00056765</ECCENTRICITY><INCLINATION>44.9963</INCLINATION><RA_OF_ASC_NODE>266.5336</RA_OF_ASC_NODE><ARG_OF_PERICENTER>268.6997</ARG_OF_PERICENTER><MEAN_ANOMALY>91.3202</MEAN_ANOMALY></meanElements><tleParameters><EPHEMERIS_TYPE>0</EPHEMERIS_TYPE><CLASSIFICATION_TYPE>U</CLASSIFICATION_TYPE><NORAD_CAT_ID>25418</NORAD_CAT_ID><ELEMENT_SET_NO>999</ELEMENT_SET_NO><REV_AT_EPOCH>42340</REV_AT_EPOCH><BSTAR>.62889169E-3</BSTAR><MEAN_MOTION_DOT>.1816E-4</MEAN_MOTION_DOT><MEAN_MOTION_DDOT>0</MEAN_MOTION_DDOT></tleParameters></data></segment></body></omm>
<omm id="CCSDS_OMM_VERS" version="2.0">
<header><CREATION_DATE/><ORIGINATOR/></header><body><segment><metadata><OBJECT_NAME>ORBCOMM FM14</OBJECT_NAME><OBJECT_ID>1998-046G</OBJECT_ID><CENTER_NAME>EARTH</CENTER_NAME><REF_FRAME>TEME</REF_FRAME><TIME_SYSTEM>UTC</TIME_SYSTEM><MEAN_ELEMENT_THEORY>SGP4</MEAN_ELEMENT_THEORY></metadata><data><meanElements><EPOCH>2025-10-28T04:30:19.028736</EPOCH><MEAN_MOTION>14.39362649</MEAN_MOTION><ECCENTRICITY>.00044702</ECCENTRICITY><INCLINATION>44.9952</INCLINATION><RA_OF_ASC_NODE>264.4548</RA_OF_ASC_NODE><ARG_OF_PERICENTER>270.1572</ARG_OF_PERICENTER><MEAN_ANOMALY>89.8764</MEAN_ANOMALY></meanElements><tleParameters><EPHEMERIS_TYPE>0</EPHEMERIS_TYPE><CLASSIFICATION_TYPE>U</CLASSIFICATION_TYPE><NORAD_CAT_ID>25419</NORAD_CAT_ID><ELEMENT_SET_NO>999</ELEMENT_SET_NO><REV_AT_EPOCH>42337</REV_AT_EPOCH><BSTAR>.6422031E-3</BSTAR><MEAN_MOTION_DOT>.1873E-4</MEAN_MOTION_DOT><MEAN_MOTION_DDOT>0</MEAN_MOTION_DDOT></tleParameters></data></segment></body></omm>
<omm id="CCSDS_OMM_VERS" version="2.0">
<header><CREATION_DATE/><ORIGINATOR/></header><body><segment><metadata><OBJECT_NAME>ORBCOMM FM13</OBJECT_NAME><OBJECT_ID>1998-046H</OBJECT_ID><CENTER_NAME>EARTH</CENTER_NAME><REF_FRAME>TEME</REF_FRAME><TIME_SYSTEM>UTC</TIME_SYSTEM><MEAN_ELEMENT_THEORY>SGP4</MEAN_ELEMENT_THEORY></metadata><data><meanElements><EPOCH>2025-10-28T05:05:04.303104</EPOCH><MEAN_MOTION>14.38030326</MEAN_MOTION><ECCENTRICITY>.00060712</ECCENTRICITY><INCLINATION>44.9975</INCLINATION><RA_OF_ASC_NODE>273.6441</RA_OF_ASC_NODE><ARG_OF_PERICENTER>247.6367</ARG_OF_PERICENTER><MEAN_ANOMALY>112.3838</MEAN_ANOMALY></meanElements><tleParameters><EPHEMERIS_TYPE>0</EPHEMERIS_TYPE><CLASSIFICATION_TYPE>U</CLASSIFICATION_TYPE><NORAD_CAT_ID>25420</NORAD_CAT_ID><ELEMENT_SET_NO>999</ELEMENT_SET_NO><REV_AT_EPOCH>42238</REV_AT_EPOCH><BSTAR>.61897433E-3</BSTAR><MEAN_MOTION_DOT>.1749E-4</MEAN_MOTION_DOT><MEAN_MOTION_DDOT>0</MEAN_MOTION_DDOT></tleParameters></data></segment></body></omm>
<omm id="CCSDS_OMM_VERS" version="2.0">
<header><CREATION_DATE/><ORIGINATOR/></header><body><segment><metadata><OBJECT_NAME>ORBCOMM FM21</OBJECT_NAME><OBJECT_ID>1998-053A</OBJECT_ID><CENTER_NAME>EARTH</CENTER_NAME><REF_FRAME>TEME</REF_FRAME><TIME_SYSTEM>UTC</TIME_SYSTEM><MEAN_ELEMENT_THEORY>SGP4</MEAN_ELEMENT_THEORY></metadata><data><meanElements><EPOCH>2025-10-28T12:40:31.693440</EPOCH><MEAN_MOTION>14.37651270</MEAN_MOTION><ECCENTRICITY>.00029953</ECCENTRICITY><INCLINATION>45.0097</INCLINATION><RA_OF_ASC_NODE>357.9123</RA_OF_ASC_NODE><ARG_OF_PERICENTER>218.6671</ARG_OF_PERICENTER><MEAN_ANOMALY>141.3963</MEAN_ANOMALY></meanElements><tleParameters><EPHEMERIS_TYPE>0</EPHEMERIS_TYPE><CLASSIFICATION_TYPE>U</CLASSIFICATION_TYPE><NORAD_CAT_ID>25475</NORAD_CAT_ID><ELEMENT_SET_NO>999</ELEMENT_SET_NO><REV_AT_EPOCH>41643</REV_AT_EPOCH><BSTAR>.47606711E-3</BSTAR><MEAN_MOTION_DOT>.1301E-4</MEAN_MOTION_DOT><MEAN_MOTION_DDOT>0</MEAN_MOTION_DDOT></tleParameters></data></segment></body></omm>
<omm id="CCSDS_OMM_VERS" version="2.0">
<header><CREATION_DATE/><ORIGINATOR/></header><body><segment><metadata><OBJECT_NAME>ORBCOMM FM22</OBJECT_NAME><OBJECT_ID>1998-053B</OBJECT_ID><CENTER_NAME>EARTH</CENTER_NAME><REF_FRAME>TEME</REF_FRAME><TIME_SYSTEM>UTC</TIME_SYSTEM><MEAN_ELEMENT_THEORY>SGP4</MEAN_ELEMENT_THEORY></metadata><data><meanElements><EPOCH>2025-10-28T12:50:00.788640</EPOCH><MEAN_MOTION>14.38789221</MEAN_MOTION><ECCENTRICITY>.00043483</ECCENTRICITY><INCLINATION>45.0088</INCLINATION><RA_OF_ASC_NODE>351.6218</RA_OF_ASC_NODE><ARG_OF_PERICENTER>206.1080</ARG_OF_PERICENTER><MEAN_ANOMALY>153.9550</MEAN_ANOMALY></meanElements><tleParameters><EPHEMERIS_TYPE>0</EPHEMERIS_TYPE><CLASSIFICATION_TYPE>U</CLASSIFICATION_TYPE><NORAD_CAT_ID>25476</NORAD_CAT_ID><ELEMENT_SET_NO>999</ELEMENT_SET_NO><REV_AT_EPOCH>41647</REV_AT_EPOCH><BSTAR>.57865382E-3</BSTAR><MEAN_MOTION_DOT>.1653E-4</MEAN_MOTION_DOT><MEAN_MOTION_DDOT>0</MEAN_MOTION_DDOT></tleParameters></data></segment></body></omm>
<omm id="CCSDS_OMM_VERS" version="2.0">
<header><CREATION_DATE/><ORIGINATOR/></header><body><segment><metadata><OBJECT_NAME>ORBCOMM FM23</OBJECT_NAME><OBJECT_ID>1998-053C</OBJECT_ID><CENTER_NAME>EARTH</CENTER_NAME><REF_FRAME>TEME</REF_FRAME><TIME_SYSTEM>UTC</TIME_SYSTEM><MEAN_ELEMENT_THEORY>SGP4</MEAN_ELEMENT_THEORY></metadata><data><meanElements><EPOCH>2025-10-28T13:55:13.576800</EPOCH><MEAN_MOTION>14.37872889</MEAN_MOTION><ECCENTRICITY>.00036608</ECCENTRICITY><INCLINATION>45.0097</INCLINATION><RA_OF_ASC_NODE>359.5869</RA_OF_ASC_NODE><ARG_OF_PERICENTER>205.5029</ARG_OF_PERICENTER><MEAN_ANOMALY>154.5639</MEAN_ANOMALY></meanElements><tleParameters><EPHEMERIS_TYPE>0</EPHEMERIS_TYPE><CLASSIFICATION_TYPE>U</CLASSIFICATION_TYPE><NORAD_CAT_ID>25477</NORAD_CAT_ID><ELEMENT_SET_NO>999</ELEMENT_SET_NO><REV_AT_EPOCH>41659</REV_AT_EPOCH><BSTAR>.53913576E-3</BSTAR><MEAN_MOTION_DOT>.15E-4</MEAN_MOTION_DOT><MEAN_MOTION_DDOT>0</MEAN_MOTION_DDOT></tleParameters></data></segment></body></omm>

</ndm>
