ORBCOMM FM20            
1 25416U 98046D   25301.22198209  .00001426  00000+0  51860-3 0  9994
2 25416  44.9943 271.1252 0002737 286.6475  73.4073 14.37516230423409
ORBCOMM FM16            
1 25417U 98046E   25301.40331262  .00002165  00000+0  73541-3 0  9994
2 25417  44.9927 260.0416 0005905 268.9513  91.0659 14.39334959423445
ORBCOMM FM15            
1 25418U 98046F   25301.20456495  .00001816  00000+0  62889-3 0  9994
2 25418  44.9963 266.5336 0005676 268.6997  91.3202 14.38963852423408
ORBCOMM FM14            
1 25419U 98046G   25301.18772024  .00001873  00000+0  64220-3 0  9995
2 25419  44.9952 264.4548 0004470 270.1572  89.8764 14.39362649423376
ORBCOMM FM13            
1 25420U 98046H   25301.21185536  .00001749  00000+0  61897-3 0  9996
2 25420  44.9975 273.6441 0006071 247.6367 112.3838 14.38030326422384
ORBCOMM FM21            
1 25475U 98053A   25301.52814460  .00001301  00000+0  47607-3 0  9990
2 25475  45.0097 357.9123 0002995 218.6671 141.3963 14.37651270416437
ORBCOMM FM22            
1 25476U 98053B   25301.53473135  .00001653  00000+0  57865-3 0  9999
2 25476  45.0088 351.6218 0004348 206.1080 153.9550 14.38789221416478
ORBCOMM FM23            
1 25477U 98053C   25301.58001825  .00001500  00000+0  53914-3 0  9990
2 25477  45.0097 359.5869 0003660 205.5029 154.5639 14.37872889416590
